COMMENT,ORIGINATOR,NORAD_CAT_ID,OBJECT_NAME,OBJECT_TYPE,CLASSIFICATION_TYPE,INTLDES,EPOCH,EPOCH_MICROSECONDS,MEAN_MOTION,ECCENTRICITY,INCLINATION,RA_OF_ASC_NODE,ARG_OF_PERICENTER,MEAN_ANOMALY,EPHEMERIS_TYPE,ELEMENT_SET_NO,REV_AT_EPOCH,BSTAR,MEAN_MOTION_DOT,MEAN_MOTION_DDOT,FILE,TLE_LINE0,TLE_LINE1,TLE_LINE2,OBJECT_ID,OBJECT_NUMBER,SEMIMAJOR_AXIS,PERIOD,APOGEE,PERIGEE,DECAYED
"GENERATED VIA SPACETRACK.ORG API","18 SPCS","48897","SPACEBEE-109","PAYLOAD","U","21059U","2022-11-13 18:51:22","493664","15.19441192","0.000813","97.5755","87.3427","309.0055","51.0455","0","999","7658","0.0007141","0.00015096","0","3653379","0 SPACEBEE-109","1 48897U 21059U   22317.78567701  .00015096  00000-0  71410-3 0  9996","2 48897  97.5755  87.3427 0008130 309.0055  51.0455 15.19441192 76584","2021-059U","48897","6885.665","94.772","513.128","501.932","0"
"GENERATED VIA SPACETRACK.ORG API","18 SPCS","48897","SPACEBEE-109","PAYLOAD","U","21059U","2022-11-13 18:51:22","493664","15.19441192","0.000813","97.5755","87.3427","309.0055","51.0455","0","999","7658","0.0007141","0.00015096","0","3653957","0 SPACEBEE-109","1 48897U 21059U   22317.78567701  .00015096  00000-0  71410-3 0  9996","2 48897  97.5755  87.3427 0008130 309.0055  51.0455 15.19441192 76584","2021-059U","48897","6885.665","94.772","513.128","501.932","0"
"GENERATED VIA SPACETRACK.ORG API","18 SPCS","48897","SPACEBEE-109","PAYLOAD","U","21059U","2022-11-14 07:30:01","589760","15.1945606","0.000806","97.5756","87.8713","306.9746","53.075","0","999","7666","0.00066551","0.00014068","0","3654975","0 SPACEBEE-109","1 48897U 21059U   22318.31251840  .00014068  00000-0  66551-3 0  9998","2 48897  97.5756  87.8713 0008060 306.9746  53.0750 15.19456060 76662","2021-059U","48897","6885.620","94.771","513.035","501.936","0"
"GENERATED VIA SPACETRACK.ORG API","18 SPCS","48897","SPACEBEE-109","PAYLOAD","U","21059U","2022-11-14 20:08:40","220160","15.19470233","0.0008004","97.5755","88.3997","304.9987","55.0496","0","999","7674","0.00059727","0.0001262","0","3656014","0 SPACEBEE-109","1 48897U 21059U   22318.83935440  .00012620  00000-0  59727-3 0  9999","2 48897  97.5755  88.3997 0008004 304.9987  55.0496 15.19470233 76740","2021-059U","48897","6885.578","94.770","512.954","501.931","0"
"GENERATED VIA SPACETRACK.ORG API","18 SPCS","48897","SPACEBEE-109","PAYLOAD","U","21059U","2022-11-14 21:43:30","19584","15.19471993","0.0008003","97.5755","88.4658","304.8134","55.2347","0","999","7675","0.00059074","0.00012482","0","3656695","0 SPACEBEE-109","1 48897U 21059U   22318.90520856  .00012482  00000-0  59074-3 0  9999","2 48897  97.5755  88.4658 0008003 304.8134  55.2347 15.19471993 76759","2021-059U","48897","6885.572","94.770","512.948","501.927","0"
"GENERATED VIA SPACETRACK.ORG API","18 SPCS","48897","SPACEBEE-109","PAYLOAD","U","21059U","2022-11-15 08:47:18","390048","15.19486984","0.0007958","97.5756","88.9283","303.2442","56.8029","0","999","7682","0.00064253","0.0001359","0","3657603","0 SPACEBEE-109","1 48897U 21059U   22319.36618507  .00013590  00000-0  64253-3 0  9997","2 48897  97.5756  88.9283 0007958 303.2442  56.8029 15.19486984 76820","2021-059U","48897","6885.527","94.769","512.871","501.912","0"
"GENERATED VIA SPACETRACK.ORG API","18 SPCS","48897","SPACEBEE-109","PAYLOAD","U","21059U","2022-11-15 19:51:06","485760","15.19496867","0.0007921","97.5755","89.3908","301.5186","58.5274","0","999","7689","0.00055042","0.00011632","0","3657961","0 SPACEBEE-109","1 48897U 21059U   22319.82715840  .00011632  00000-0  55042-3 0  9997","2 48897  97.5755  89.3908 0007921 301.5186  58.5274 15.19496867 76893","2021-059U","48897","6885.497","94.768","512.816","501.908","0"
"GENERATED VIA SPACETRACK.ORG API","18 SPCS","48897","SPACEBEE-109","PAYLOAD","U","21059U","2022-11-16 08:29:43","933344","15.19509416","0.00079","97.5755","89.9193","299.546","60.4986","0","999","7697","0.00051076","0.00010792","0","3659084","0 SPACEBEE-109","1 48897U 21059U   22320.35398071  .00010792  00000-0  51076-3 0  9999","2 48897  97.5755  89.9193 0007900 299.5460  60.4986 15.19509416 76979","2021-059U","48897","6885.459","94.767","512.764","501.885","0"
"GENERATED VIA SPACETRACK.ORG API","18 SPCS","48897","SPACEBEE-109","PAYLOAD","U","21059U","2022-11-16 08:29:43","933344","15.19509416","0.00079","97.5755","89.9193","299.546","60.4986","0","999","7697","0.00051076","0.00010792","0","3659788","0 SPACEBEE-109","1 48897U 21059U   22320.35398071  .00010792  00000-0  51076-3 0  9999","2 48897  97.5755  89.9193 0007900 299.5460  60.4986 15.19509416 76979","2021-059U","48897","6885.459","94.767","512.764","501.885","0"
"GENERATED VIA SPACETRACK.ORG API","18 SPCS","48897","SPACEBEE-109","PAYLOAD","U","21059U","2022-11-17 08:12:08","152992","15.19532538","0.0007872","97.5751","90.9103","295.5715","64.4706","0","999","7712","0.00050164","0.00010604","0","3661693","0 SPACEBEE-109","1 48897U 21059U   22321.34176103  .00010604  00000-0  50164-3 0  9998","2 48897  97.5751  90.9103 0007872 295.5715  64.4706 15.19532538 77128","2021-059U","48897","6885.389","94.766","512.675","501.834","0"
"GENERATED VIA SPACETRACK.ORG API","18 SPCS","48897","SPACEBEE-109","PAYLOAD","U","21059U","2022-11-18 07:54:31","169088","15.19554078","0.0007921","97.575","91.9013","291.6209","68.4181","0","999","7727","0.00050266","0.00010633","0","3662338","0 SPACEBEE-109","1 48897U 21059U   22322.32952742  .00010633  00000-0  50266-3 0  9993","2 48897  97.5750  91.9013 0007921 291.6209  68.4181 15.19554078 77278","2021-059U","48897","6885.324","94.765","512.643","501.735","0"
"GENERATED VIA SPACETRACK.ORG API","18 SPCS","48897","SPACEBEE-109","PAYLOAD","U","21059U","2022-11-18 07:54:31","169088","15.19554078","0.0007921","97.575","91.9013","291.6209","68.4181","0","999","7727","0.00050266","0.00010633","0","3662515","0 SPACEBEE-109","1 48897U 21059U   22322.32952742  .00010633  00000-0  50266-3 0  9993","2 48897  97.5750  91.9013 0007921 291.6209  68.4181 15.19554078 77278","2021-059U","48897","6885.324","94.765","512.643","501.735","0"
"GENERATED VIA SPACETRACK.ORG API","18 SPCS","48897","SPACEBEE-109","PAYLOAD","U","21059U","2022-11-19 07:36:52","934976","15.19579512","0.0007912","97.5751","92.8924","287.6178","72.4192","0","999","7742","0.00062788","0.00013314","0","3663316","0 SPACEBEE-109","1 48897U 21059U   22323.31727934  .00013314  00000-0  62788-3 0  9997","2 48897  97.5751  92.8924 0007912 287.6178  72.4192 15.19579512 77424","2021-059U","48897","6885.247","94.763","512.560","501.665","0"
"GENERATED VIA SPACETRACK.ORG API","18 SPCS","48897","SPACEBEE-109","PAYLOAD","U","21059U","2022-11-20 07:19:13","310688","15.19602092","0.0007869","97.5752","93.8836","283.8753","76.1606","0","999","7757","0.00053373","0.00011311","0","3664205","0 SPACEBEE-109","1 48897U 21059U   22324.30501517  .00011311  00000-0  53373-3 0  9999","2 48897  97.5752  93.8836 0007869 283.8753  76.1606 15.19602092 77573","2021-059U","48897","6885.179","94.762","512.462","501.626","0"
"GENERATED VIA SPACETRACK.ORG API","18 SPCS","48897","SPACEBEE-109","PAYLOAD","U","21059U","2022-11-20 07:19:13","310688","15.19602092","0.0007869","97.5752","93.8836","283.8753","76.1606","0","999","7757","0.00053373","0.00011311","0","3664760","0 SPACEBEE-109","1 48897U 21059U   22324.30501517  .00011311  00000-0  53373-3 0  9999","2 48897  97.5752  93.8836 0007869 283.8753  76.1606 15.19602092 77573","2021-059U","48897","6885.179","94.762","512.462","501.626","0"
"GENERATED VIA SPACETRACK.ORG API","18 SPCS","48897","SPACEBEE-109","PAYLOAD","U","21059U","2022-11-20 19:57:47","648736","15.19614219","0.0007871","97.5753","94.4123","281.9101","78.1251","0","999","7765","0.00051897","0.00011","0","3665715","0 SPACEBEE-109","1 48897U 21059U   22324.83180149  .00011000  00000-0  51897-3 0  9995","2 48897  97.5753  94.4123 0007871 281.9101  78.1251 15.19614219 77650","2021-059U","48897","6885.143","94.761","512.427","501.588","0"
"GENERATED VIA SPACETRACK.ORG API","18 SPCS","48897","SPACEBEE-109","PAYLOAD","U","21059U","2022-11-21 08:36:21","620448","15.19628408","0.0007802","97.5757","94.941","279.7962","80.2392","0","999","7773","0.00059065","0.00012537","0","3666136","0 SPACEBEE-109","1 48897U 21059U   22325.35858357  .00012537  00000-0  59065-3 0  9997","2 48897  97.5757  94.9410 0007802 279.7962  80.2392 15.19628408 77736","2021-059U","48897","6885.100","94.760","512.337","501.593","0"
"GENERATED VIA SPACETRACK.ORG API","18 SPCS","48897","SPACEBEE-109","PAYLOAD","U","21059U","2022-11-21 08:36:21","620448","15.19628408","0.0007802","97.5757","94.941","279.7962","80.2392","0","999","7773","0.00059065","0.00012537","0","3666297","0 SPACEBEE-109","1 48897U 21059U   22325.35858357  .00012537  00000-0  59065-3 0  9997","2 48897  97.5757  94.9410 0007802 279.7962  80.2392 15.19628408 77736","2021-059U","48897","6885.100","94.760","512.337","501.593","0"
"GENERATED VIA SPACETRACK.ORG API","18 SPCS","48897","SPACEBEE-109","PAYLOAD","U","21059U","2022-11-21 19:40:06","65760","15.19637673","0.0007796","97.5757","95.4036","277.8392","82.1957","0","999","7780","0.00055704","0.00011821","0","3666658","0 SPACEBEE-109","1 48897U 21059U   22325.81951465  .00011821  00000-0  55704-3 0  9993","2 48897  97.5757  95.4036 0007796 277.8392  82.1957 15.19637673 77804","2021-059U","48897","6885.072","94.759","512.304","501.569","0"
"GENERATED VIA SPACETRACK.ORG API","18 SPCS","48897","SPACEBEE-109","PAYLOAD","U","21059U","2022-11-22 08:18:39","360096","15.19647744","0.0007793","97.5758","95.9323","275.759","84.2756","0","999","7788","0.00045294","0.00009599","0","3667274","0 SPACEBEE-109","1 48897U 21059U   22326.34628889  .00009599  00000-0  45294-3 0  9995","2 48897  97.5758  95.9323 0007793 275.7590  84.2756 15.19647744 77881","2021-059U","48897","6885.041","94.759","512.272","501.541","0"
